0 ATLAS CENTAUR R/B
1 07545U 74093B   13283.08157858  .00000020  00000-0  24553-3 0  6770
2 07545 025.6450 165.3538 7205606 231.3521 039.3619 02.21087583184357
0 ATLAS CENTAUR R/B
1 07545U 74093B   13283.50524677 -.00000043  00000-0  65588-3 0  6773
2 07545 025.6517 165.2210 7205072 231.6094 016.5683 02.21087498184366
0 ATLAS CENTAUR R/B
1 07545U 74093B   13286.69726954 -.00000105  00000-0  65588-3 0  6788
2 07545 025.6675 164.1940 7207413 233.4328 037.1434 02.21088348184436
0 ATLAS CENTAUR R/B
1 07545U 74093B   13287.09208751 -.00000117  00000-0  57157-3 0  6790
2 07545 025.6471 163.9959 7206258 233.6661 351.3843 02.21087790184441
0 ATLAS CENTAUR R/B
1 07545U 74093B   13291.16449936 -.00000077  00000-0  64075-3 0  6809
2 07545 025.6417 162.6043 7207467 236.0013 352.6784 02.21088131184530
0 ATLAS CENTAUR R/B
1 07545U 74093B   13292.55047961 -.00000052  00000-0  64707-3 0  6811
2 07545 025.6396 162.1301 7207894 236.7962 015.8015 02.21088262184565
0 ATLAS CENTAUR R/B
1 07545U 74093B   13296.13849950 -.00000088  00000-0  44195-4 0  6827
2 07545 025.6351 160.8939 7209054 238.8640 351.5646 02.21089189184642
